STARLINK-31320          
1 58886U 24020L   25360.29032782 -.00000807  00000+0 -15120-4 0  9991
2 58886  53.1600 303.3313 0001069 103.5522 256.5598 15.30188205106833
STARLINK-31321          
1 58887U 24020M   25360.22817676  .00000039  00000+0  13426-4 0  9990
2 58887  53.1604 303.6555 0000960 103.3422 256.7686 15.30189241107983
STARLINK-31007          
1 58889U 24020P   25360.23134051  .00000295  00000+0  22101-4 0  9996
2 58889  53.1604 303.6748 0001077  91.7641 268.3483 15.30191888106828
STARLINK-31230          
1 58890U 24020Q   25360.54894696  .00002979  00000+0  11270-3 0  9995
2 58890  53.1596 300.0005 0001259  90.2043 269.9102 15.30194803106903
STARLINK-31245          
1 58891U 24020R   25360.86322066  .00001756  00000+0  71415-4 0  9998
2 58891  53.1600 259.5442 0001298  72.2519 287.8623 15.30196134108654
STARLINK-31254          
1 58892U 24020S   25360.83335647  .00334244  00000+0  12679-2 0  9991
2 58892  53.1372 286.2388 0015507 111.8025  70.6451 15.86058681  5677
STARLINK-31255          
1 58893U 24020T   25360.82234192  .00002808  00000+0  10705-3 0  9991
2 58893  53.1602 300.9650 0002265  83.9675 276.1584 15.30162682106912
STARLINK-31243          
1 58894U 24020U   25360.82551045  .00004099  00000+0  15050-3 0  9993
2 58894  53.1611 300.9824 0001498 101.7075 258.4094 15.30185781106910
STARLINK-31218          
1 58895U 24020V   25360.24083653  .00000782  00000+0  38545-4 0  9995
2 58895  53.1614 303.7273 0001228  84.8290 275.2851 15.30192312106820
STARLINK-31190          
1 58897U 24020X   25360.57479806  .00000710  00000+0  36103-4 0  9991
2 58897  53.1619 302.2563 0001446 100.4890 259.6274 15.30188658106874
STARLINK-31317          
1 58931U 24027A   25360.82280123  .00003690  00000+0  13672-3 0  9992
2 58931  53.1617 287.9735 0001145  74.9076 285.2051 15.30182105106013
STARLINK-31378          
1 58932U 24027B   25360.82597304  .00007913  00000+0  27906-3 0  9992
2 58932  53.1586 287.9938 0000843  71.2244 288.8848 15.30192623106171
STARLINK-31350          
1 58933U 24027C   25360.22864183  .00002185  00000+0  85874-4 0  9994
2 58933  53.1594 290.6650 0001131  90.4710 269.6421 15.30195281106082
STARLINK-31337          
1 58934U 24027D   25360.09484484  .00000776  00000+0  38322-4 0  9992
2 58934  53.1604 291.2523 0001143 102.7879 257.3249 15.30189534106061
STARLINK-31362          
1 58935U 24027E   25360.07702303 -.00000261  00000+0  33236-5 0  9994
2 58935  53.1623 291.8486 0001486  87.6792 272.4379 15.30188616106053
STARLINK-31383          
1 58936U 24027F   25360.53317058  .00000846  00000+0  40712-4 0  9999
2 58936  53.1625 289.7187 0001343  91.9101 268.2053 15.30190667106123
STARLINK-31390          
1 58937U 24027G   25360.79021858 -.00000016  00000+0  11583-4 0  9992
2 58937  53.1606 288.4797 0001074  65.5360 294.5753 15.30182764106163
STARLINK-31377          
1 58938U 24027H   25360.53212613  .00003043  00000+0  11494-3 0  9998
2 58938  53.1622 289.7133 0001742  87.5878 272.5322 15.30172653106120
STARLINK-31372          
1 58939U 24027J   25360.19920228  .00001367  00000+0  58282-4 0  9993
2 58939  53.1608 291.1876 0001467 111.6201 248.4956 15.30191139106078
STARLINK-31371          
1 58940U 24027K   25360.52472975 -.00001603  00000+0 -42020-4 0  9991
2 58940  53.1612 289.6637 0001287  96.4092 263.7055 15.30199905106125
STARLINK-31345          
1 58941U 24027L   25360.22758647  .00000913  00000+0  42946-4 0  9990
2 58941  53.1614 290.6567 0001261  76.3531 283.7610 15.30191734106085
STARLINK-31354          
1 58942U 24027M   25360.78387236  .00000739  00000+0  37074-4 0  9996
2 58942  53.1626 288.4408 0001266  92.3506 267.7639 15.30195118106165
STARLINK-31346          
1 58943U 24027N   25360.82332933  .00001260  00000+0  54645-4 0  9999
2 58943  53.1599 285.8557 0000975  82.2113 277.8998 15.30197936106204
STARLINK-31336          
1 58944U 24027P   25360.53105661 -.00000860  00000+0 -16938-4 0  9994
2 58944  53.1617 289.7038 0001135  95.7906 264.3224 15.30188718106112
STARLINK-31359          
1 58945U 24027Q   25360.83801039  .00003180  00000+0  11947-3 0  9990
2 58945  53.1604 249.5756 0001414  74.0000 286.1157 15.30193133106726
STARLINK-31331          
1 58946U 24027R   25360.18337824  .00000195  00000+0  18700-4 0  9993
2 58946  53.1594 291.0897 0000863 101.8609 258.2489 15.30191445106074
STARLINK-31116          
1 58947U 24027S   25360.25185729  .00000198  00000+0  18809-4 0  9990
2 58947  53.1596 290.8053 0001230  85.9884 274.1257 15.30194536106089
STARLINK-31311          
1 58948U 24027T   25360.82438347  .00001644  00000+0  67627-4 0  9990
2 58948  53.1617 285.8589 0001125  79.9492 280.1635 15.30197387106201
STARLINK-31294          
1 58949U 24027U   25360.20975750  .00003875  00000+0  14289-3 0  9990
2 58949  53.1612 291.2506 0001335  96.3713 263.7440 15.30202646106070
STARLINK-31330          
1 58951U 24027W   25360.24911160 -.00000650  00000+0 -98409-5 0  9990
2 58951  53.1609 287.9680 0001001 104.4056 255.7056 15.30190103106129
STARLINK-31293          
1 58952U 24027X   25360.50361955 -.00000096  00000+0  88931-5 0  9993
2 58952  53.1614 289.5333 0001080  78.4229 281.6893 15.30195930106128
STARLINK-31373          
1 58965U 24031A   25360.18591139 -.00000122  00000+0  80065-5 0  9995
2 58965  53.1599 277.8163 0001673  74.4224 285.6962 15.30190564105289
STARLINK-31449          
1 58966U 24031B   25360.18379612  .00001502  00000+0  62824-4 0  9990
2 58966  53.1603 277.8036 0001206  80.8249 279.2888 15.30193648105287
STARLINK-31314          
1 58967U 24031C   25360.05950473  .00002625  00000+0  10073-3 0  9992
2 58967  53.1589 278.4474 0001104  92.5476 267.5651 15.30190398105268
STARLINK-31356          
1 58968U 24031D   25360.67310113 -.00004243  00000+0 -13118-3 0  9995
2 58968  53.1606 247.9966 0001768 129.3734 230.7424 15.30202989105741
STARLINK-31335          
1 58969U 24031E   25360.74682878 -.00000109  00000+0  84252-5 0  9999
2 58969  53.1608 272.7901 0000960  87.5446 272.5665 15.30193381105406
STARLINK-31368          
1 58970U 24031F   25360.18908647 -.00000750  00000+0 -13196-4 0  9995
2 58970  53.1605 277.8409 0001263  84.7205 275.3940 15.30182203105287
STARLINK-31333          
1 58971U 24031G   25360.43195816  .00001130  00000+0  50302-4 0  9991
2 58971  53.1599 264.4348 0001112 101.6570 258.4556 15.30188232105497
STARLINK-31351          
1 58972U 24031H   25360.46827058  .00000373  00000+0  24723-4 0  9991
2 58972  53.1607 276.7304 0001091  89.0828 271.0298 15.30196197105311
STARLINK-31365          
1 58973U 24031J   25360.73586192  .00001165  00000+0  51467-4 0  9998
2 58973  53.1598 275.5552 0000895  92.1557 267.9546 15.30193310105367
STARLINK-31361          
1 58974U 24031K   25360.07955467 -.00000497  00000+0 -46632-5 0  9999
2 58974  53.1609 278.5708 0000938  92.7382 267.3726 15.30190602105261
STARLINK-31369          
1 58975U 24031L   25360.73903420 -.00002149  00000+0 -60488-4 0  9995
2 58975  53.1594 275.5744 0000505 104.5471 255.5585 15.30197195105348
STARLINK-31324          
1 58976U 24031M   25360.48093747 -.00000433  00000+0 -25023-5 0  9991
2 58976  53.1607 276.8082 0001077 102.7116 257.4005 15.30194394105306
STARLINK-31358          
1 58977U 24031N   25360.05633369  .00001323  00000+0  56802-4 0  9990
2 58977  53.1592 278.4141 0001117  78.5420 281.5707 15.30192128105240
STARLINK-31355          
1 58978U 24031P   25360.48410492  .00000393  00000+0  25390-4 0  9992
2 58978  53.1613 276.8283 0001144  92.5949 267.5183 15.30192123105300
STARLINK-31380          
1 58979U 24031Q   25360.74852567  .00003524  00000+0  13103-3 0  9992
2 58979  53.1610 275.6346 0001283  91.1614 268.9533 15.30200477105343
STARLINK-31353          
1 58980U 24031R   25360.15858807 -.00000446  00000+0 -29391-5 0  9992
2 58980  53.1617 278.3545 0001206  94.1350 265.9789 15.30190484105254
STARLINK-31339          
1 58981U 24031S   25360.75169565 -.00000076  00000+0  95450-5 0  9992
2 58981  53.1614 275.6531 0001049  94.3474 265.7647 15.30187753105347
STARLINK-31384          
1 58983U 24031U   25360.10488473  .00001845  00000+0  74427-4 0  9999
2 58983  53.1615 278.7237 0001356  71.2802 288.8346 15.30190122105242
STARLINK-31379          
1 58984U 24031V   25360.17442137  .00000769  00000+0  38105-4 0  9991
2 58984  53.1607 278.4466 0001668  79.4293 280.6895 15.30182871105257
STARLINK-31385          
1 58985U 24031W   25360.47616302 -.00006234  00000+0 -19840-3 0  9991
2 58985  53.1598 274.6083 0001080 122.8872 237.2232 15.30221281105335
STARLINK-31229          
1 58986U 24031X   25360.76857499 -.00001451  00000+0 -36918-4 0  9990
2 58986  53.1652 275.7577 0000327  55.1063 304.9969 15.30184273105349
STARLINK-31468          
1 58998U 24036A   25360.44810936  .00000573  00000+0  31478-4 0  9996
2 58998  53.1600  58.0558 0001300  76.3799 283.7346 15.30198590104124
STARLINK-31440          
1 58999U 24036B   25360.45022181  .00000194  00000+0  18696-4 0  9991
2 58999  53.1619  58.0607 0001322  85.7326 274.3826 15.30194577103303
STARLINK-31529          
1 59000U 24036C   25360.59827036 -.00001227  00000+0 -29303-4 0  9999
2 59000  53.1609  55.4370 0001338  87.4082 272.7072 15.30187204104089
STARLINK-31431          
1 59002U 24036E   25360.55985906  .00001340  00000+0  57375-4 0  9992
2 59002  53.1620  58.0318 0001463 106.3460 253.7702 15.30192283104122
STARLINK-31435          
1 59004U 24036G   25360.45127758  .00001962  00000+0  78392-4 0  9998
2 59004  53.1613  58.0649 0001312  73.2596 286.8549 15.30187431104123
STARLINK-31484          
1 59005U 24036H   25360.45443986  .00001939  00000+0  77592-4 0  9998
2 59005  53.1599  58.0844 0001110  74.2367 285.8756 15.30193645104119
STARLINK-31450          
1 59006U 24036J   25360.46184863 -.00000850  00000+0 -16595-4 0  9995
2 59006  53.1593  58.1318 0001422  93.5070 266.6094 15.30177539104118
